[
    {
        "Altitude(m)": 624792.7856029682,
        "Argument of Periapsis(deg)": 0.0,
        "Eccentricity": 0.0,
        "Inclination(deg)": 60.0,
        "Latitude(deg)": -59.147128592895214,
        "Longitude(deg)": -150.9737640733419,
        "Mean Anomaly(deg)": 261.8182,
        "RAAN(deg)": 55.00000000000001,
        "Satellite Name": "Test1 258",
        "Satellite Number": 258,
        "Semi-Major Axis(m)": 6980739.136638005,
        "Time(s)": 0
    },
    {
        "Altitude(m)": 624842.1782465007,
        "Argument of Periapsis(deg)": 0.00010418945913296404,
        "Eccentricity": 0.0,
        "Inclination(deg)": 60.0,
        "Latitude(deg)": -59.28921414444834,
        "Longitude(deg)": -149.84425956028366,
        "Mean Anomaly(deg)": 262.4383061454619,
        "RAAN(deg)": 54.999579950860266,
        "Satellite Name": "Test1 258",
        "Satellite Number": 258,
        "Semi-Major Axis(m)": 6980739.136638005,
        "Time(s)": 10
    },
    {
        "Altitude(m)": 624887.7466308028,
        "Argument of Periapsis(deg)": 0.0002083789182659281,
        "Eccentricity": 0.0,
        "Inclination(deg)": 60.0,
        "Latitude(deg)": -59.420688844584774,
        "Longitude(deg)": -148.70533433617152,
        "Mean Anomaly(deg)": 263.0584122909236,
        "RAAN(deg)": 54.999159901720525,
        "Satellite Name": "Test1 258",
        "Satellite Number": 258,
        "Semi-Major Axis(m)": 6980739.136638005,
        "Time(s)": 20
    },
    {
        "Altitude(m)": 624929.4727922723,
        "Argument of Periapsis(deg)": 0.00031256837739889213,
        "Eccentricity": 0.0,
        "Inclination(deg)": 60.0,
        "Latitude(deg)": -59.54141538971392,
        "Longitude(deg)": -147.5576107049947,
        "Mean Anomaly(deg)": 263.67851843638556,
        "RAAN(deg)": 54.99873985258077,
        "Satellite Name": "Test1 258",
        "Satellite Number": 258,
        "Semi-Major Axis(m)": 6980739.136638005,
        "Time(s)": 30
    },
    {
        "Altitude(m)": 624967.3402784733,
        "Argument of Periapsis(deg)": 0.0004167578365318562,
        "Eccentricity": 0.0,
        "Inclination(deg)": 60.0,
        "Latitude(deg)": -59.65126560961935,
        "Longitude(deg)": -146.40174595620087,
        "Mean Anomaly(deg)": 264.2986245818473,
        "RAAN(deg)": 54.99831980344103,
        "Satellite Name": "Test1 258",
        "Satellite Number": 258,
        "Semi-Major Axis(m)": 6980739.136638005,
        "Time(s)": 40
    },
    {
        "Altitude(m)": 625001.3341550707,
        "Argument of Periapsis(deg)": 0.0005209472956648203,
        "Eccentricity": 0.0,
        "Inclination(deg)": 60.0,
        "Latitude(deg)": -59.75012110655938,
        "Longitude(deg)": -145.23843152801084,
        "Mean Anomaly(deg)": 264.9187307273092,
        "RAAN(deg)": 54.99789975430129,
        "Satellite Name": "Test1 258",
        "Satellite Number": 258,
        "Semi-Major Axis(m)": 6980739.136638005,
        "Time(s)": 50
    },
    {
        "Altitude(m)": 625031.4410121273,
        "Argument of Periapsis(deg)": 0.0006251367547977843,
        "Eccentricity": 0.0,
        "Inclination(deg)": 60.0,
        "Latitude(deg)": -59.83787386129676,
        "Longitude(deg)": -144.0683903331568,
        "Mean Anomaly(deg)": 265.538836872771,
        "RAAN(deg)": 54.99747970516154,
        "Satellite Name": "Test1 258",
        "Satellite Number": 258,
        "Semi-Major Axis(m)": 6980739.136638005,
        "Time(s)": 60
    },
    {
        "Altitude(m)": 625057.6489697549,
        "Argument of Periapsis(deg)": 0.0007293262139307483,
        "Eccentricity": 0.0,
        "Inclination(deg)": 60.0,
        "Latitude(deg)": -59.914426799219655,
        "Longitude(deg)": -142.89237377014982,
        "Mean Anomaly(deg)": 266.15894301823283,
        "RAAN(deg)": 54.9970596560218,
        "Satellite Name": "Test1 258",
        "Satellite Number": 258,
        "Semi-Major Axis(m)": 6980739.136638005,
        "Time(s)": 70
    },
    {
        "Altitude(m)": 625079.9476831029,
        "Argument of Periapsis(deg)": 0.0008335156730637124,
        "Eccentricity": 0.0,
        "Inclination(deg)": 60.0,
        "Latitude(deg)": -59.97969430992115,
        "Longitude(deg)": -141.7111599488576,
        "Mean Anomaly(deg)": 266.77904916369465,
        "RAAN(deg)": 54.996639606882056,
        "Satellite Name": "Test1 258",
        "Satellite Number": 258,
        "Semi-Major Axis(m)": 6980739.136638005,
        "Time(s)": 80
    },
    {
        "Altitude(m)": 625098.3283467379,
        "Argument of Periapsis(deg)": 0.0009377051321966765,
        "Eccentricity": 0.0,
        "Inclination(deg)": 60.0,
        "Latitude(deg)": -60.03360271396476,
        "Longitude(deg)": -140.52555012603924,
        "Mean Anomaly(deg)": 267.39915530915647,
        "RAAN(deg)": 54.996219557742315,
        "Satellite Name": "Test1 258",
        "Satellite Number": 258,
        "Semi-Major Axis(m)": 6980739.136638005,
        "Time(s)": 90
    },
    {
        "Altitude(m)": 625112.7836983289,
        "Argument of Periapsis(deg)": 0.0010418945913296407,
        "Eccentricity": 0.0,
        "Inclination(deg)": 60.0,
        "Latitude(deg)": -60.076090671041776,
        "Longitude(deg)": -139.33636489040933,
        "Mean Anomaly(deg)": 268.01926145461834,
        "RAAN(deg)": 54.99579950860257,
        "Satellite Name": "Test1 258",
        "Satellite Number": 258,
        "Semi-Major Axis(m)": 6980739.136638005,
        "Time(s)": 100
    },
    {
        "Altitude(m)": 625123.3080217175,
        "Argument of Periapsis(deg)": 0.0011460840504626045,
        "Eccentricity": 0.0,
        "Inclination(deg)": 60.0,
        "Latitude(deg)": -60.10710952433488,
        "Longitude(deg)": -138.1444416417443,
        "Mean Anomaly(deg)": 268.6393676000801,
        "RAAN(deg)": 54.99537945946283,
        "Satellite Name": "Test1 258",
        "Satellite Number": 258,
        "Semi-Major Axis(m)": 6980739.136638005,
        "Time(s)": 110
    },
    {
        "Altitude(m)": 625129.897149322,
        "Argument of Periapsis(deg)": 0.0012502735095955685,
        "Eccentricity": 0.0,
        "Inclination(deg)": 60.0,
        "Latitude(deg)": -60.12662357663732,
        "Longitude(deg)": -136.95063037434593,
        "Mean Anomaly(deg)": 269.259473745542,
        "RAAN(deg)": 54.99495941032309,
        "Satellite Name": "Test1 258",
        "Satellite Number": 258,
        "Semi-Major Axis(m)": 6980739.136638005,
        "Time(s)": 120
    },
    {
        "Altitude(m)": 625132.5484638985,
        "Argument of Periapsis(deg)": 0.0013544629687285324,
        "Eccentricity": 0.0,
        "Inclination(deg)": 60.0,
        "Latitude(deg)": -60.13461029459682,
        "Longitude(deg)": -135.75578931758517,
        "Mean Anomaly(deg)": 269.8795798910038,
        "RAAN(deg)": 54.99453936118335,
        "Satellite Name": "Test1 258",
        "Satellite Number": 258,
        "Semi-Major Axis(m)": 6980739.136638005,
        "Time(s)": 130
    },
    {
        "Altitude(m)": 625131.2608996438,
        "Argument of Periapsis(deg)": 0.0014586524278614966,
        "Eccentricity": 0.0,
        "Inclination(deg)": 60.0,
        "Latitude(deg)": -60.131060438367676,
        "Longitude(deg)": -134.56078198925155,
        "Mean Anomaly(deg)": 270.4996860364656,
        "RAAN(deg)": 54.99411931204361,
        "Satellite Name": "Test1 258",
        "Satellite Number": 258,
        "Semi-Major Axis(m)": 6980739.136638005,
        "Time(s)": 140
    },
    {
        "Altitude(m)": 625126.0349426321,
        "Argument of Periapsis(deg)": 0.0015628418869944607,
        "Eccentricity": 0.0,
        "Inclination(deg)": 60.0,
        "Latitude(deg)": -60.11597811493885,
        "Longitude(deg)": -133.36647268093705,
        "Mean Anomaly(deg)": 271.11979218192744,
        "RAAN(deg)": 54.99369926290386,
        "Satellite Name": "Test1 258",
        "Satellite Number": 258,
        "Semi-Major Axis(m)": 6980739.136638005,
        "Time(s)": 150
    },
    {
        "Altitude(m)": 625116.8726306402,
        "Argument of Periapsis(deg)": 0.0016670313461274247,
        "Eccentricity": 0.0,
        "Inclination(deg)": 60.0,
        "Latitude(deg)": -60.089380754417576,
        "Longitude(deg)": -132.17372193448668,
        "Mean Anomaly(deg)": 271.7398983273893,
        "RAAN(deg)": 54.99327921376412,
        "Satellite Name": "Test1 258",
        "Satellite Number": 258,
        "Semi-Major Axis(m)": 6980739.136638005,
        "Time(s)": 160
    },
    {
        "Altitude(m)": 625103.7775522651,
        "Argument of Periapsis(deg)": 0.0017712208052603888,
        "Eccentricity": 0.0,
        "Inclination(deg)": 60.0,
        "Latitude(deg)": -60.051299009586906,
        "Longitude(deg)": -130.98338356874768,
        "Mean Anomaly(deg)": 272.3600044728511,
        "RAAN(deg)": 54.99285916462438,
        "Satellite Name": "Test1 258",
        "Satellite Number": 258,
        "Semi-Major Axis(m)": 6980739.136638005,
        "Time(s)": 170
    },
    {
        "Altitude(m)": 625086.7548454386,
        "Argument of Periapsis(deg)": 0.001875410264393353,
        "Eccentricity": 0.0,
        "Inclination(deg)": 60.0,
        "Latitude(deg)": -60.00177658008848,
        "Longitude(deg)": -129.7963002764104,
        "Mean Anomaly(deg)": 272.98011061831295,
        "RAAN(deg)": 54.992439115484636,
        "Satellite Name": "Test1 258",
        "Satellite Number": 258,
        "Semi-Major Axis(m)": 6980739.136638005,
        "Time(s)": 180
    },
    {
        "Altitude(m)": 625065.8111952607,
        "Argument of Periapsis(deg)": 0.0019795997235263173,
        "Eccentricity": 0.0,
        "Inclination(deg)": 60.0,
        "Latitude(deg)": -59.94086996357429,
        "Longitude(deg)": -128.61329934759567,
        "Mean Anomaly(deg)": 273.60021676377477,
        "RAAN(deg)": 54.992019066344895,
        "Satellite Name": "Test1 258",
        "Satellite Number": 258,
        "Semi-Major Axis(m)": 6980739.136638005,
        "Time(s)": 190
    }
]